OBJECT_NAME,OBJECT_ID,EPOCH,MEAN_MOTION,ECCENTRICITY,INCLINATION,RA_OF_ASC_NODE,ARG_OF_PERICENTER,MEAN_ANOMALY,EPHEMERIS_TYPE,CLASSIFICATION_TYPE,NORAD_CAT_ID,ELEMENT_SET_NO,REV_AT_EPOCH,BSTAR,MEAN_MOTION_DOT,MEAN_MOTION_DDOT
TDRS 3,1988-091B,2026-07-04T18:47:15.337824,1.00267291,.00369499,12.5885,340.8805,356.2571,178.5294,0,U,19548,999,12556,0,-.29E-5,0
FLTSATCOM 8 (USA 46),1989-077A,2026-07-05T07:35:43.355328,1.00268105,.0003715,12.4163,351.0543,63.8853,108.0107,0,U,20253,999,26074,0,-.359E-5,0
SKYNET 4C,1990-079A,2026-07-05T05:41:40.958304,0.98576314,.00032856,13.3325,349.6957,131.4937,139.2980,0,U,20776,999,21,0,.12E-6,0
TDRS 5,1991-054B,2026-07-05T13:51:07.075008,1.00270372,.00068861,14.0686,353.6375,256.9944,73.0442,0,U,21639,999,12789,0,.92E-6,0
TDRS 6,1993-003B,2026-07-05T08:57:59.668992,1.00264715,.00089104,14.1830,356.9230,180.2064,194.6268,0,U,22314,999,12259,0,-.289E-5,0
UFO 2 (USA 95),1993-056A,2026-07-05T03:42:33.728256,1.00277249,.0004069,11.9009,3.4550,9.5921,354.4520,0,U,22787,999,11873,0,.133E-5,0
USA 99 (MILSTAR-1 1),1994-009A,2026-07-05T13:22:35.764032,0.98720529,.00014154,17.6524,27.5126,184.5310,174.6524,0,U,22988,999,3312,0,-.7E-7,0
UFO 4 (USA 108),1995-003A,2026-07-05T06:50:38.815008,1.00274614,.00030427,9.6815,13.0730,86.9734,98.1488,0,U,23467,999,11513,0,-.13E-6,0
TDRS 7,1995-035B,2026-07-05T10:50:36.447072,1.00276477,.00116957,13.3695,348.0638,83.6585,103.5356,0,U,23613,999,11343,0,-.232E-5,0
USA 115 (MILSTAR-1 2),1995-060A,2026-07-05T13:17:46.366368,1.00272278,.00063859,14.0788,3.6042,118.8019,270.5579,0,U,23712,999,3307,0,-.195E-5,0
INMARSAT 3-F1,1996-020A,2026-07-05T13:30:37.996992,0.99978536,.00041016,10.6383,46.4639,76.6806,248.4533,0,U,23839,999,11043,0,.1E-6,0
INMARSAT 3-F2,1996-053A,2026-07-05T14:24:02.787264,0.99996492,.00064355,9.8976,53.7476,45.9201,171.2858,0,U,24307,999,10910,0,-.342E-5,0
INMARSAT 3-F3,1996-070A,2026-07-04T20:56:12.831936,0.99990916,.00033584,10.3556,49.4824,60.5961,151.1847,0,U,24674,999,10808,0,.104E-5,0
USA 134,1997-065A,2026-07-05T13:29:11.260032,1.00271904,.00023829,12.8045,21.5789,342.7252,9.1094,0,U,25019,999,3313,0,-.54E-6,0
INMARSAT 3-F5,1998-006B,2026-07-05T03:16:19.262784,1.00269208,.0004084,9.7304,53.0774,52.9753,172.1697,0,U,25153,999,10407,0,-.282E-5,0
ABS-6,1999-053A,2026-07-05T10:37:42.934656,1.00271783,.0002983,0.0326,281.9439,162.6513,157.2669,0,U,25924,999,9802,0,-.106E-5,0
UFO 10 (USA 146),1999-063A,2026-07-05T08:35:55.931136,1.00274243,.00021431,9.8493,27.1141,94.6011,267.6385,0,U,25967,999,9753,0,-.179E-5,0
ASIASTAR,2000-016A,2026-07-05T12:03:21.725856,1.00267897,.0004352,9.1692,57.9549,49.3062,102.0458,0,U,26107,999,9610,0,-.324E-5,0
USA 149 (DSP 20),2000-024A,2026-07-05T11:01:30.745632,1.00283053,.0001338,13.1833,11.7161,305.1026,327.0803,0,U,26356,999,3309,0,.104E-5,0
TDRS 8,2000-034A,2026-07-05T02:15:58.428864,1.00274279,.0004475,12.7113,31.1686,28.7135,342.0166,0,U,26388,999,9536,0,-.188E-5,0
NSS-11,2000-059A,2026-07-05T09:30:30.295008,1.00272032,.00029731,2.1705,81.1806,22.8227,138.0114,0,U,26554,999,4147,0,.37E-6,0
USA 153,2000-065A,2026-07-04T23:04:50.923200,1.00275760,.00022836,11.6539,35.2697,54.4319,313.8503,0,U,26575,999,3311,0,-.317E-5,0
AMC-6,2000-067A,2026-07-05T11:29:16.874592,1.00271002,.00039116,0.1957,83.5808,31.3089,205.8734,0,U,26580,999,9407,0,.102E-5,0
USA 157 (MILSTAR-2 2),2001-009A,2026-07-05T07:07:38.764416,1.00270614,.00402758,11.5613,19.6448,178.5059,41.9691,0,U,26715,999,3312,0,.118E-5,0
INTELSAT 902 (IS-902),2001-039A,2026-07-05T09:02:54.116736,1.00270857,.00043007,6.1619,71.5603,30.8596,266.5630,0,U,26900,999,9087,0,-.273E-5,0
USA 164 (MILSTAR-2 3),2002-001A,2026-07-05T05:22:33.053088,1.00273921,.00988692,11.1997,21.7905,8.9618,352.0376,0,U,27168,999,3314,0,.106E-5,0
INTELSAT 904 (IS-904),2002-007A,2026-07-05T10:16:07.421088,1.00270515,.00060381,6.9623,68.9648,18.9332,318.0715,0,U,27380,999,5194,0,-.215E-5,0
DIRECTV 5 (TEMPO 1),2002-023A,2026-07-05T13:29:21.780096,1.00271556,.00034605,4.9215,75.0837,42.4456,258.2609,0,U,27426,999,8830,0,-.46E-6,0
INTELSAT 905 (IS-905),2002-027A,2026-07-04T18:22:10.242912,1.00272930,.00038993,6.7946,69.5884,37.7783,313.7493,0,U,27438,999,5153,0,.103E-5,0
GALAXY 3C (G-3C),2002-030A,2026-07-05T03:07:32.953728,1.00271566,.0001805,3.7762,77.7473,32.1865,125.2617,0,U,27445,999,4667,0,-.141E-5,0
INTELSAT 906 (IS-906),2002-041A,2026-07-05T05:35:24.320832,1.00271099,.00040411,5.8472,72.6991,13.2338,345.2811,0,U,27513,999,8720,0,.24E-6,0
NIMIQ 2,2002-062A,2026-07-04T15:04:49.821888,1.00272071,.00055309,9.4836,56.7105,44.0933,298.8598,0,U,27632,999,4435,0,-.61E-6,0
USA 167,2003-008A,2026-07-03T06:26:38.763744,1.00272289,.0003348,10.9909,43.2613,316.9630,256.0432,0,U,27691,999,693,0,.1E-6,0
USA 169 (MILSTAR-2 4),2003-012A,2026-07-05T10:34:03.570240,1.00270611,.00999424,12.3754,29.6875,10.0528,194.3477,0,U,27711,999,3313,0,-.189E-5,0
ASIASAT 4,2003-014A,2026-07-05T14:16:46.253856,1.00272143,.00028493,4.7501,75.5154,28.9629,180.8459,0,U,27718,999,4548,0,-.21E-5,0
HELLAS-SAT 2,2003-020A,2026-07-05T10:22:14.335104,1.00271879,.00033031,7.3969,67.6652,66.3394,294.9600,0,U,27811,999,4303,0,-.74E-6,0
THURAYA-2,2003-026A,2026-07-05T14:54:46.592640,1.00272095,.00027187,8.8674,31.8931,18.8461,140.5771,0,U,27825,999,8453,0,.134E-5,0
OPTUS C1,2003-028B,2026-07-05T12:32:32.995968,1.00270812,.00054938,6.9323,69.1871,32.1545,166.0702,0,U,27831,999,5324,0,-.141E-5,0
USA 170,2003-040A,2026-07-02T20:28:10.431264,1.00272797,.00017181,10.5312,47.7972,42.7502,161.5742,0,U,27875,999,3315,0,.132E-5,0
GALAXY 13 (HORIZONS-1),2003-044A,2026-07-05T13:04:28.839936,1.00273610,.00017269,1.4658,83.6287,19.1192,226.8957,0,U,27954,999,4675,0,.146E-5,0
YAMAL 202,2003-053A,2026-07-05T14:07:20.536896,1.00272112,.00034118,6.3884,70.7165,26.7085,201.5391,0,U,28089,999,8288,0,-.69E-6,0
UFO 11 (USA 174),2003-057A,2026-07-05T14:12:04.667616,1.00272492,.00028576,8.9423,33.7319,90.7194,87.7766,0,U,28117,999,8263,0,-.96E-6,0
USA 176 (DSP 22),2004-004A,2026-07-05T10:11:07.899072,1.00270113,.00008003,12.0853,25.9297,298.6677,62.3203,0,U,28158,999,3312,0,-.288E-5,0
ABS-4 (MOBISAT-1),2004-007A,2026-07-05T05:34:31.905408,1.00270938,.00045711,6.0860,71.7878,32.1245,323.8858,0,U,28184,999,5251,0,.5E-6,0
INTELSAT 10-02,2004-022A,2026-07-05T00:08:56.036832,1.00270331,.0000499,0.0397,258.3722,291.2155,94.6491,0,U,28358,999,8073,0,.2E-7,0
ANIK F2,2004-027A,2026-07-05T13:28:31.268064,1.00271725,.00039345,3.3318,79.2051,23.7148,271.6457,0,U,28378,999,4144,0,-.38E-6,0
AMC-15,2004-041A,2026-07-05T13:27:08.330112,1.00271511,.00023706,0.0175,339.4419,132.1835,268.6637,0,U,28446,999,7948,0,-.75E-6,0
NSS-10,2005-003A,2026-07-05T11:57:06.706656,1.00271911,.00029313,6.4922,70.2309,33.5586,321.5351,0,U,28526,999,5333,0,-.241E-5,0
INMARSAT 4-F1,2005-009A,2026-07-05T14:00:02.641824,1.00271644,.00027873,5.1912,42.7717,64.7701,204.1580,0,U,28628,999,7785,0,.44E-6,0
DIRECTV 8,2005-019A,2026-07-05T13:32:17.344896,1.00270132,.00031463,0.0219,43.1954,76.6613,247.7267,0,U,28659,999,7725,0,0,0
GALAXY 28 (G-28),2005-022A,2026-07-04T22:18:48.843936,1.00269863,.0002414,3.3414,78.7199,25.0359,126.7797,0,U,28702,999,5215,0,-.189E-5,0
THAICOM 4,2005-028A,2026-07-05T14:17:34.571328,1.00271412,.00017419,0.2899,85.6559,4.1512,167.6871,0,U,28786,999,5243,0,-.349E-5,0
ANIK F1R,2005-036A,2026-07-05T05:11:19.396608,1.00271802,.00041093,4.3557,76.3598,17.6778,159.7103,0,U,28868,999,4663,0,-.64E-6,0
SYRACUSE 3A,2005-041B,2026-07-04T23:50:51.740160,1.00269501,.0002684,4.6865,75.6202,20.1865,231.5399,0,U,28885,999,7592,0,.14E-5,0
INMARSAT 4-F2,2005-044A,2026-07-04T12:51:27.002880,1.00270872,.00031405,5.1161,43.6573,51.2893,163.9427,0,U,28899,999,7569,0,-.25E-5,0
METEOSAT-9 (MSG-2),2005-049B,2026-07-04T17:31:39.317088,1.00268028,.00023882,9.3983,53.9918,0.4955,176.8994,0,U,28912,999,717,0,.133E-5,0
EUTELSAT 174A,2005-052A,2026-07-05T10:46:43.516992,1.00269556,.00060235,4.2618,76.3049,29.5243,153.2877,0,U,28924,999,5251,0,.2E-6,0
ECHOSTAR 10,2006-003A,2026-07-05T13:28:32.093184,1.00272201,.00014689,0.0254,322.8663,107.1905,305.4567,0,U,28935,999,7464,0,-.42E-6,0
SPAINSAT,2006-007A,2026-07-05T07:07:44.827104,1.00272543,.00049612,0.6071,86.2583,14.5942,259.2025,0,U,28945,999,7439,0,-.204E-5,0
JCSAT-5A,2006-010A,2026-07-05T14:28:09.926688,1.00271307,.00019659,1.1542,84.0383,13.2753,175.3713,0,U,29045,999,7395,0,-.314E-5,0
ASTRA 1KR,2006-012A,2026-07-05T13:55:55.070400,1.00272367,.00035222,0.5183,83.2282,16.0765,52.2409,0,U,29055,999,4588,0,.132E-5,0
GALAXY 16 (G-16),2006-023A,2026-07-05T11:39:30.894336,1.00271157,.00026162,0.0288,137.9656,327.9973,253.3975,0,U,29236,999,7315,0,-.113E-5,0
EUTELSAT 33F,2006-032A,2026-07-05T13:59:54.686976,1.00273976,.00035383,1.7060,82.0498,22.9322,61.6637,0,U,29270,999,4749,0,.169E-5,0
JCSAT-3A,2006-033A,2026-07-05T12:44:18.750912,1.00271040,.00023807,0.0097,27.7658,86.2201,128.6136,0,U,29272,999,4792,0,-.331E-5,0
KOREASAT 5 (MUGUNGWHA 5),2006-034A,2026-07-05T12:40:04.157760,1.00272327,.00017967,1.8294,82.7758,63.8289,79.9958,0,U,29349,999,4150,0,-.345E-5,0
DIRECTV 9S,2006-043A,2026-07-05T13:23:12.991200,1.00271499,.00052537,2.4651,80.6893,27.0136,275.4583,0,U,29494,999,5156,0,-.101E-5,0
OPTUS D1,2006-043B,2026-07-05T13:57:14.410656,1.00272193,.00035968,3.0790,79.4378,22.2635,183.1558,0,U,29495,999,7230,0,-.171E-5,0
BADR-4,2006-051A,2026-07-05T14:00:17.150976,1.00272231,.00051232,2.0492,80.9312,23.4147,63.7312,0,U,29526,999,5145,0,.169E-5,0
WILDBLUE-1,2006-054A,2026-07-05T13:28:24.784608,1.00272005,.00014791,2.8473,80.2596,23.9724,270.2155,0,U,29643,999,5397,0,-.37E-6,0
SKYNET 5A,2007-007B,2026-07-05T02:38:51.800064,1.00273003,.0003583,5.3449,73.5234,32.8920,311.6192,0,U,30794,999,7087,0,-.261E-5,0
ANIK F3,2007-009A,2026-07-05T13:32:23.944992,1.00271551,.0002711,1.2420,83.6483,23.5746,260.7192,0,U,31102,999,4674,0,.12E-6,0
ASTRA 1L,2007-016A,2026-07-05T09:33:33.533856,1.00270914,.00055321,1.3657,81.4470,25.3620,295.4821,0,U,31306,999,4516,0,-.171E-5,0
